[
    {
        "CCSDS_OMM_VERS": "3.0",
        "COMMENT": "GENERATED VIA SPACE-TRACK.ORG API",
        "CREATION_DATE": "2025-03-02T22:56:18",
        "ORIGINATOR": "18 SPCS",
        "OBJECT_NAME": "BEIDOU IGSO-7",
        "OBJECT_ID": "2018-057A",
        "CENTER_NAME": "EARTH",
        "REF_FRAME": "TEME",
        "TIME_SYSTEM": "UTC",
        "MEAN_ELEMENT_THEORY": "SGP4",
        "EPOCH": "2025-03-02T20:29:43.094400",
        "MEAN_MOTION": "1.00288930",
        "ECCENTRICITY": "0.00854140",
        "INCLINATION": "55.1592",
        "RA_OF_ASC_NODE": "167.1468",
        "ARG_OF_PERICENTER": "234.8503",
        "MEAN_ANOMALY": "178.2626",
        "EPHEMERIS_TYPE": "0",
        "CLASSIFICATION_TYPE": "U",
        "NORAD_CAT_ID": "43539",
        "ELEMENT_SET_NO": "999",
        "REV_AT_EPOCH": "2439",
        "BSTAR": "0.00000000000000",
        "MEAN_MOTION_DOT": "-0.00000137",
        "MEAN_MOTION_DDOT": "0.0000000000000",
        "SEMIMAJOR_AXIS": "42159.926",
        "PERIOD": "1435.851",
        "APOAPSIS": "36141.896",
        "PERIAPSIS": "35421.686",
        "OBJECT_TYPE": "PAYLOAD",
        "RCS_SIZE": "LARGE",
        "COUNTRY_CODE": "PRC",
        "LAUNCH_DATE": "2018-07-09",
        "SITE": "XSC",
        "DECAY_DATE": null,
        "FILE": "4657416",
        "GP_ID": "282106951",
        "TLE_LINE0": "0 BEIDOU IGSO-7",
        "TLE_LINE1": "1 43539U 18057A   25061.85397100 -.00000137  00000-0  00000+0 0  9993",
        "TLE_LINE2": "2 43539  55.1592 167.1468 0085414 234.8503 178.2626  1.00288930 24394"
    }
]